[{"OBJECT_NAME":"STARLINK-34478","OBJECT_ID":"2025-129Z","EPOCH":"2026-03-09T10:58:08.947200","MEAN_MOTION":14.98328243,"ECCENTRICITY":0.00033112,"INCLINATION":70.0017,"RA_OF_ASC_NODE":74.9962,"ARG_OF_PERICENTER":268.3923,"MEAN_ANOMALY":91.6856,"EPHEMERIS_TYPE":0,"CLASSIFICATION_TYPE":"U","NORAD_CAT_ID":64435,"ELEMENT_SET_NO":999,"REV_AT_EPOCH":4119,"BSTAR":0.00011620674,"MEAN_MOTION_DOT":1.294e-5,"MEAN_MOTION_DDOT":0},{"OBJECT_NAME":"DELTA 1 DEB","OBJECT_ID":"1972-058EG","EPOCH":"2026-03-09T15:29:57.375744","MEAN_MOTION":14.93143945,"ECCENTRICITY":0.0071537,"INCLINATION":98.4418,"RA_OF_ASC_NODE":299.7647,"ARG_OF_PERICENTER":185.1751,"MEAN_ANOMALY":174.8735,"EPHEMERIS_TYPE":0,"CLASSIFICATION_TYPE":"U","NORAD_CAT_ID":8314,"ELEMENT_SET_NO":999,"REV_AT_EPOCH":83297,"BSTAR":0.00043799,"MEAN_MOTION_DOT":4.734e-5,"MEAN_MOTION_DDOT":0}]
